NORAD_CAT_ID,OBJECT_NAME,OBJECT_TYPE,EPOCH,MEAN_MOTION,ECCENTRICITY,INCLINATION,RA_OF_ASC_NODE,ARG_OF_PERICENTER,MEAN_ANOMALY,BSTAR,MEAN_MOTION_DOT,MEAN_MOTION_DDOT,TLE_LINE0,TLE_LINE1,TLE_LINE2,SEMIMAJOR_AXIS,PERIOD,APOGEE,PERIGEE,DECAYED
53407.0,STARLINK-4537,PAYLOAD,2023-04-14 14:30:25,15.08848943,0.0001226,53.2159,183.2612,100.7554,259.3577,0.00020818,3.028e-05,0.0,0 STARLINK-4537,1 53407U 22097V   23104.60445982  .00003028  00000-0  20818-3 0  9992,2 53407  53.2159 183.2612 0001226 100.7554 259.3577 15.08848943 38269,6917.853,95.437,540.566,538.87,0.0
53407.0,STARLINK-4537,PAYLOAD,2023-04-14 22:27:21,15.08828595,9.15e-05,53.2145,181.775,84.3986,275.711,-9.579e-05,-1.811e-05,0.0,0 STARLINK-4537,1 53407U 22097V   23104.93567125 -.00001811  00000-0 -95790-4 0  9994,2 53407  53.2145 181.7750 0000915  84.3986 275.7110 15.08828595 38312,6917.915,95.438,540.413,539.147,0.0
53407.0,STARLINK-4537,PAYLOAD,2023-04-15 11:10:26,15.08841845,0.0001826,53.2162,179.3979,71.4086,288.7104,6.1241e-05,6.87e-06,0.0,0 STARLINK-4537,1 53407U 22097V   23105.46558912  .00000687  00000-0  61241-4 0  9999,2 53407  53.2162 179.3979 0001826  71.4086 288.7104 15.08841845 38395,6917.875,95.437,541.003,538.477,0.0
53407.0,STARLINK-4537,PAYLOAD,2023-04-16 04:39:41,15.08843807,0.000142,53.213,176.122,93.172,266.9434,0.0001955,2.825e-05,0.0,0 STARLINK-4537,1 53407U 22097V   23106.19422577  .00002825  00000-0  19550-3 0  9998,2 53407  53.2130 176.1220 0001420  93.1720 266.9434 15.08843807 38507,6917.869,95.437,540.716,538.751,0.0
53407.0,STARLINK-4537,PAYLOAD,2023-04-16 11:01:13,15.08851041,0.0001358,53.2144,174.9338,87.6631,272.4516,0.00020687,3.007e-05,0.0,0 STARLINK-4537,1 53407U 22097V   23106.45918235  .00003007  00000-0  20687-3 0  9994,2 53407  53.2144 174.9338 0001358  87.6631 272.4516 15.08851041 39038,6917.847,95.437,540.651,538.772,0.0
53407.0,STARLINK-4537,PAYLOAD,2023-04-17 10:52:01,15.08832854,0.0001538,53.2156,170.4754,85.4553,274.6614,-7.4807e-05,-1.478e-05,0.0,0 STARLINK-4537,1 53407U 22097V   23107.45279274 -.00001478  00000-0 -74807-4 0  9994,2 53407  53.2156 170.4754 0001538  85.4553 274.6614 15.08832854 39183,6917.902,95.438,540.831,538.703,0.0
53407.0,STARLINK-4537,PAYLOAD,2023-04-17 15:38:10,15.08837986,0.0001547,53.216,169.5802,104.4032,255.7132,2.4713e-05,1.05e-06,0.0,0 STARLINK-4537,1 53407U 22097V   23107.65151051  .00000105  00000-0  24713-4 0  9993,2 53407  53.2160 169.5802 0001547 104.4032 255.7132 15.08837986 39215,6917.887,95.438,540.822,538.681,0.0
53407.0,STARLINK-4537,PAYLOAD,2023-04-18 09:07:24,15.0885091,0.0001768,53.2175,166.3105,96.7545,263.3648,-0.00011959,-2.192e-05,0.0,0 STARLINK-4537,1 53407U 22097V   23108.38014662 -.00002192  00000-0 -11959-3 0  9997,2 53407  53.2175 166.3105 0001768  96.7545 263.3648 15.08850910 39320,6917.847,95.437,540.935,538.489,0.0
53407.0,STARLINK-4537,PAYLOAD,2023-04-18 13:53:36,15.0875974,0.0001902,53.2169,165.4167,101.0487,259.0719,0.0013231,0.00020786,0.0,0 STARLINK-4537,1 53407U 22097V   23108.57889968  .00020786  00000-0  13231-2 0  9998,2 53407  53.2169 165.4167 0001902 101.0487 259.0719 15.08759740 38864,6918.126,95.443,541.307,538.675,0.0
53407.0,STARLINK-4537,PAYLOAD,2023-04-19 04:12:03,15.08831899,0.0001518,53.2152,162.7415,105.3601,254.7559,0.00012085,1.635e-05,0.0,0 STARLINK-4537,1 53407U 22097V   23109.17503554  .00001635  00000-0  12085-3 0  9998,2 53407  53.2152 162.7415 0001518 105.3601 254.7559 15.08831899 38950,6917.905,95.438,540.82,538.72,0.0
53407.0,STARLINK-4537,PAYLOAD,2023-04-19 08:58:12,15.08833478,0.0001386,53.2154,161.8495,101.5055,258.6093,0.0001464,2.042e-05,0.0,0 STARLINK-4537,1 53407U 22097V   23109.37375454  .00002042  00000-0  14640-3 0  9998,2 53407  53.2154 161.8495 0001386 101.5055 258.6093 15.08833478 39473,6917.9,95.438,540.724,538.807,0.0
53407.0,STARLINK-4537,PAYLOAD,2023-04-19 20:05:54,15.08841723,0.0001337,53.2168,159.7703,84.5663,275.5481,7.3793e-05,8.87e-06,0.0,0 STARLINK-4537,1 53407U 22097V   23109.83743282  .00000887  00000-0  73793-4 0  9997,2 53407  53.2168 159.7703 0001337  84.5663 275.5481 15.08841723 39546,6917.875,95.437,540.665,538.815,0.0
53407.0,STARLINK-4537,PAYLOAD,2023-04-20 08:48:59,15.08836981,0.0001416,53.2172,157.3915,93.0362,267.0792,3.1075e-05,2.07e-06,0.0,0 STARLINK-4537,1 53407U 22097V   23110.36735846  .00000207  00000-0  31075-4 0  9997,2 53407  53.2172 157.3915 0001416  93.0362 267.0792 15.08836981 39629,6917.89,95.438,540.734,538.775,0.0
53407.0,STARLINK-4537,PAYLOAD,2023-04-20 13:35:09,15.0883773,0.0001257,53.2168,156.5016,89.9507,270.1629,5.3463e-05,5.63e-06,0.0,0 STARLINK-4537,1 53407U 22097V   23110.56607753  .00000563  00000-0  53463-4 0  9994,2 53407  53.2168 156.5016 0001257  89.9507 270.1629 15.08837730 39161,6917.887,95.438,540.622,538.883,0.0
53407.0,STARLINK-4537,PAYLOAD,2023-04-20 19:56:42,15.08831508,0.0001182,53.2169,155.3099,92.5387,267.574,1.5319e-05,-4.4e-07,0.0,0 STARLINK-4537,1 53407U 22097V   23110.83104230 -.00000044  00000-0  15319-4 0  9999,2 53407  53.2169 155.3099 0001182  92.5387 267.5740 15.08831508 39692,6917.906,95.438,540.589,538.954,0.0
53407.0,STARLINK-4537,PAYLOAD,2023-04-21 19:47:28,15.08838594,0.0001318,53.216,150.8483,85.6208,274.4935,3.1122e-05,2.07e-06,0.0,0 STARLINK-4537,1 53407U 22097V   23111.82464074  .00000207  00000-0  31122-4 0  9994,2 53407  53.2160 150.8483 0001318  85.6208 274.4935 15.08838594 39354,6917.885,95.438,540.661,538.838,0.0
53407.0,STARLINK-4537,PAYLOAD,2023-04-22 19:38:15,15.08836467,6.86e-05,53.2147,146.3891,88.7136,271.3935,-3.1692e-05,-7.92e-06,0.0,0 STARLINK-4537,1 53407U 22097V   23112.81824012 -.00000792  00000-0 -31692-4 0  9999,2 53407  53.2147 146.3891 0000686  88.7136 271.3935 15.08836467 39996,6917.891,95.438,540.231,539.282,0.0
53407.0,STARLINK-4537,PAYLOAD,2023-04-23 11:32:07,15.08840285,7.47e-05,53.2156,143.4133,90.1461,269.9616,5.6704e-05,6.15e-06,0.0,0 STARLINK-4537,1 53407U 22097V   23113.48063780  .00000615  00000-0  56704-4 0  9993,2 53407  53.2156 143.4133 0000747  90.1461 269.9616 15.08840285 40094,6917.88,95.438,540.261,539.228,0.0
53407.0,STARLINK-4537,PAYLOAD,2023-04-23 13:07:30,15.08841175,0.0001103,53.2155,143.1174,91.0027,269.1092,8.0442e-05,9.93e-06,0.0,0 STARLINK-4537,1 53407U 22097V   23113.54687763  .00000993  00000-0  80442-4 0  9998,2 53407  53.2155 143.1174 0001103  91.0027 269.1092 15.08841175 39615,6917.877,95.437,540.505,538.979,0.0
53407.0,STARLINK-4537,PAYLOAD,2023-04-24 11:22:53,15.08853067,0.0001297,53.2161,138.9523,117.3683,242.7441,0.00013705,1.895e-05,0.0,0 STARLINK-4537,1 53407U 22097V   23114.47422571  .00001895  00000-0  13705-3 0  9994,2 53407  53.2161 138.9523 0001297 117.3683 242.7441 15.08853067 39759,6917.84,95.437,540.603,538.808,0.0
53407.0,STARLINK-4537,PAYLOAD,2023-04-24 12:58:16,15.08834561,0.0001743,53.2166,138.6559,131.2207,228.8935,0.00051813,7.966e-05,0.0,0 STARLINK-4537,1 53407U 22097V   23114.54046938  .00007966  00000-0  51813-3 0  9998,2 53407  53.2166 138.6559 0001743 131.2207 228.8935 15.08834561 40251,6917.897,95.438,540.968,538.556,0.0
53407.0,STARLINK-4537,PAYLOAD,2023-04-25 12:49:04,15.08830197,0.0001195,53.2149,134.1951,93.7535,266.3594,-0.0001105,-2.046e-05,0.0,0 STARLINK-4537,1 53407U 22097V   23115.53408385 -.00002046  00000-0 -11050-3 0  9991,2 53407  53.2149 134.1951 0001195  93.7535 266.3594 15.08830197 40402,6917.91,95.438,540.602,538.949,0.0
53407.0,STARLINK-4537,PAYLOAD,2023-04-26 12:39:51,15.08837945,0.0001153,53.2151,129.7348,94.5924,265.52,-3.7318e-05,-8.82e-06,0.0,0 STARLINK-4537,1 53407U 22097V   23116.52768433 -.00000882  00000-0 -37318-4 0  9996,2 53407  53.2151 129.7348 0001153  94.5924 265.5200 15.08837945 40559,6917.887,95.438,540.549,538.954,0.0
53407.0,STARLINK-4537,PAYLOAD,2023-04-26 17:26:01,15.08839568,0.0001218,53.2147,128.8428,96.409,263.7041,1.7506e-05,-9e-08,0.0,0 STARLINK-4537,1 53407U 22097V   23116.72640406 -.00000009  00000-0  17506-4 0  9994,2 53407  53.2147 128.8428 0001218  96.4090 263.7041 15.08839568 40589,6917.882,95.438,540.589,538.904,0.0
53407.0,STARLINK-4537,PAYLOAD,2023-04-27 10:55:15,15.08844032,0.0001204,53.215,125.5716,94.1568,265.9562,0.00028557,4.26e-05,0.0,0 STARLINK-4537,1 53407U 22097V   23117.45504465  .00004260  00000-0  28557-3 0  9998,2 53407  53.2150 125.5716 0001204  94.1568 265.9562 15.08844032 40693,6917.868,95.437,540.566,538.9,0.0
53407.0,STARLINK-4537,PAYLOAD,2023-04-28 12:21:25,15.08845386,0.0001244,53.2152,120.8135,94.7917,265.3217,0.00012927,1.77e-05,0.0,0 STARLINK-4537,1 53407U 22097V   23118.51488258  .00001770  00000-0  12927-3 0  9994,2 53407  53.2152 120.8135 0001244  94.7917 265.3217 15.08845386 40364,6917.864,95.437,540.59,538.868,0.0
53407.0,STARLINK-4537,PAYLOAD,2023-04-29 12:12:13,15.0884414,0.0001328,53.2162,116.3515,87.4409,272.6735,4.092e-05,3.63e-06,0.0,0 STARLINK-4537,1 53407U 22097V   23119.50848477  .00000363  00000-0  40920-4 0  9999,2 53407  53.2162 116.3515 0001328  87.4409 272.6735 15.08844140 41000,6917.868,95.437,540.651,538.814,0.0
53407.0,STARLINK-4537,PAYLOAD,2023-04-30 08:52:14,15.08837725,0.0001399,53.2171,112.485,88.5781,271.5371,1.8576e-05,8e-08,0.0,0 STARLINK-4537,1 53407U 22097V   23120.36960954  .00000008  00000-0  18576-4 0  9998,2 53407  53.2171 112.4850 0001399  88.5781 271.5371 15.08837725 40646,6917.887,95.438,540.72,538.785,0.0
53407.0,STARLINK-4537,PAYLOAD,2023-05-01 10:18:23,15.08845352,0.0001475,53.2173,107.7276,84.3239,275.7921,9.5407e-05,1.231e-05,0.0,0 STARLINK-4537,1 53407U 22097V   23121.42944303  .00001231  00000-0  95407-4 0  9993,2 53407  53.2173 107.7276 0001475  84.3239 275.7921 15.08845352 40804,6917.864,95.437,540.749,538.709,0.0
53407.0,STARLINK-4537,PAYLOAD,2023-05-02 08:33:47,15.08844396,0.0001355,53.2166,103.5649,100.2007,259.9138,9.8552e-05,1.281e-05,0.0,0 STARLINK-4537,1 53407U 22097V   23122.35680226  .00001281  00000-0  98552-4 0  9996,2 53407  53.2166 103.5649 0001355 100.2007 259.9138 15.08844396 41433,6917.867,95.437,540.669,538.795,0.0
